{
  "norad_id": 66586,
  "name": "TJS-21",
  "history": [
    {
      "epoch": "2026-03-25T21:48:07.632288Z",
      "apogee_km": 38296.88098243402,
      "perigee_km": 2051.51701487453,
      "latitude_deg": 3.772083111500538e-05,
      "longitude_deg": 1.0339876304102131,
      "height_km": 7942.330401974643,
      "semi_major_axis_km": 26552.33599865428,
      "eccentricity": 0.68252684,
      "inclination_deg": 63.311,
      "raan_deg": 151.4086,
      "arg_perigee_deg": 269.3056,
      "mean_anomaly_deg": 18.6838,
      "mean_motion_rev_day": 2.00654387
    }
  ]
}